IRIDIUM 63              
1 25286U 98021B   26003.49593980  .00000782  00000+0  25868-3 0  9999
2 25286  86.3983 358.0825 0002143  82.8359 277.3082 14.36757951452602
IRIDIUM 69              
1 25319U 98026A   26003.51578638  .00000759  00000+0  22908-3 0  9993
2 25319  86.3971  10.7298 0004580  86.1268 274.0455 14.41240314451912
IRIDIUM 71              
1 25320U 98026B   26003.50108491  .00000615  00000+0  18412-3 0  9996
2 25320  86.3972   5.4070 0003762 117.6190 242.5392 14.41335014452440
IRIDIUM 73              
1 25344U 98032C   26003.41802168  .00001323  00000+0  32247-3 0  9990
2 25344  86.4423 321.7761 0002781  75.1182 285.0331 14.52027809459611
IRIDIUM 82              
1 25467U 98051A   26003.50352619  .00072146  00000+0  12524-2 0  9994
2 25467  86.3588  10.1321 0055847 246.4257 113.1131 15.48805445454762
